#dP2023  6 24 18  0  0.00000000      96 __u+U ITR00 EXT  IAC
## 2267 583200.00000000   900.00000000 60119 0.7500000000000
+  118   C06C07C08C09C10C11C12C13C14C16C19C20C21C22C23C24C25
+        C26C27C28C29C30C32C33C34C35C36C37C38C39C40C41C42C43
+        C44C45C46E02E03E04E07E08E09E10E11E12E13E14E15E18E19
+        E21E24E25E26E27E30E31E33E34E36G01G02G03G04G05G06G07
+        G08G09G10G11G12G13G14G15G16G17G18G19G20G21G22G23G24
+        G25G26G27G28G29G30G31G32J02J03J04R01R02R03R04R05R07
+        R08R09R11R12R13R14R15R16R17R18R19R20R21R22R24R25  0
++        11  9 10 10  8  9  9  9  9 10  8  7  8  7  9  6  6
++         7  7  8  7 10  9  8  8  7  9  8  8  9 12  7  9  7
++         8  8  9  8  8  7  8  8  7  6  6  7  7  7  8  7  8
++         7  7  6  7  7  8  7  7  7  7  7  7  9  7  7  6  8
++         7  6  8  6  7  7  7  7  7  8  6  7  8  7  7  7  6
++         7  8  7  6  7  8  7  8  9 10 11  9  7  8  7  8  9
++         9  9  8  8  9  7  8  8  7  7  9  8  7  8  8  8  0
%c M  cc GPS ccc cccc cccc cccc cccc ccccc ccccc ccccc ccccc
%c cc cc ccc ccc cccc cccc cccc cccc ccccc ccccc ccccc ccccc
%f  0.0000000  0.000000000  0.00000000000  0.000000000000000
%f  0.0000000  0.000000000  0.00000000000  0.000000000000000
%i    0    0    0    0      0      0      0      0         0
%i    0    0    0    0      0      0      0      0         0
/* IAC                                ULTRA-RAPID PREDICTION
/* S/V CLOCKS ARE ALIGNED TO GNSS TIME                      
/* G:C1WC2W R:C1PC2P E:C1XC5X C:C2IC6I J:C1CC2S             
/* PCV:IGS20_2247 OL/AL:FES2004  NONE     YN ORB:CoN CLK:CoN
*  2023 06 25  1 15  0.00000000
PC06  -2201.648851  33628.732675 -25121.672835   -172.038284
PC07 -12310.881384  27042.120654  29920.558619   -223.555959
PC08 -15435.434791  38282.481811  -9089.419302    449.327769
PC09   5366.156092  37847.906438 -16706.446405    494.375337
PC10  -4292.185725  27650.324188  31773.917719    -95.556719
PC11 -18123.104577 -21203.407577    103.048435    691.887396
PC12  -4472.281066 -21921.313179 -16641.122780    737.938694
PC13  -9803.456419  38365.343501 -14719.060174    302.943215
PC14 -16406.293075 -10393.185430  20029.607242    461.921278
PC16  -2494.371585  32793.151622 -25986.124236     30.742842
PC19  23863.888778   4353.231528 -13798.354798   -928.458303
PC20   8357.733899  13940.121035 -22677.983321    480.680505
PC21  13597.676522 -15863.494745  18528.438123   -926.953407
PC22  26468.663953  -8189.947113   3479.439831   -425.595214
PC23 -17643.179278  10829.936654 -18702.123293   -968.797261
PC24  -1563.547591 -24863.285125 -12558.609942    100.394735
PC25 -14258.031484  -8629.788880 -22386.149442    154.361785
PC26  10101.695332 -25775.071076   3359.665404   -139.519622
PC27  -3419.844324  18088.339785  20945.928816    160.100944
PC28 -17076.941842   3626.463809  21769.157904    119.065468
PC29  22331.445759  14146.451340  -8953.389819    138.558612
PC30  13057.215348  22855.500132   9228.005765     -1.525218
PC32 -13524.847309  15948.698131 -18455.232125   -545.237251
PC33 -23793.194377  -4325.656403  13907.785618   -900.982685
PC34 -14035.476723 -22761.838874  -8027.822989    200.519258
PC35  17301.100001  -3827.449285 -21566.794672    601.398743
PC36  13705.459695   9796.516882  22275.787800   -364.622988
PC37 -11297.325861  25151.723170  -4357.970313   -787.548898
PC38 -18853.572370  37789.538066  -1035.705971     87.343592
PC39  -6012.696789  28932.479999 -29926.218226     -3.482322
PC40 -17619.066358  20817.931757  32081.240518    -27.278266
PC41 -26627.863774   7843.795503  -2733.098328   -914.532920
PC42  -6759.343580 -14512.732410  22896.417294   -636.418749
PC43 -22208.811268 -14826.329526   8123.807934     27.742489
PC44   3011.433050 -18209.807457 -20956.204315    148.568186
PC45  17532.181246 -11336.914345  18512.565013   -114.518016
PC46   2508.312302  24176.440439  13745.474138    -64.022000
PE02 -23229.527191   3314.550384 -18050.578244     46.002726
PE03 -28414.999000  -5633.588428  -6041.193462    -29.666853
PE04  19335.268841  -8548.602163  20732.018887   -152.258694
PE07   1024.507731  17905.242576 -23540.981376    -55.164475
PE08 -19557.805983   8227.725576 -20627.885189   -104.264712
PE09   -870.740276 -17730.093677  23690.267599    -61.904376
PE10   5930.636883 -24209.027108 -15976.963384   -543.702438
PE11   -914.047667 -28843.950236  -6633.864635   2314.642410
PE12  11440.578737 -16299.497413 -21916.671214   -592.941306
PE13    502.648916  28667.349165   7339.123980    -19.308624
PE14  -7267.585327  13996.531441  18793.401071    263.684882
PE15 -11517.624176  15937.592850  22120.448448    -32.047091
PE18  17207.901204 -13215.875000 -23108.907616    220.883342
PE19  28387.927487   7580.776586   3609.046245  -2223.180198
PE21  10634.766475  12945.137792  24404.752002   -536.948734
PE24   9451.749821 -22712.610778 -16459.814819   -173.606263
PE25 -10314.000098 -13204.851429 -24393.163053   -607.299523
PE26  12449.345599  23955.012910 -12145.015825    143.975740
PE27  -8775.181232  22624.883281  16957.471681    -83.045691
PE30 -23083.792606  18514.795186   -900.401601   -282.801565
PE31  22808.758395 -18863.318016    411.399498   -526.602761
PE33  16635.059505   6079.232448 -23719.591554   -442.737869
PE34 -16638.830992  -5887.363174  23748.023779    -52.612870
PE36 -12058.232341 -24455.068411  11523.919622    -76.280213
PG01 -13687.021834   5416.043934  21735.179945    176.379731
PG02 -15677.384857   -628.089414  21950.797309   -582.584986
PG03 -22570.763610  12011.488205   6819.774822   -258.094478
PG04 -21407.485827   2491.905341 -15586.008737     77.532547
PG05  18544.654298   1416.602482 -19183.792229   -132.404072
PG06   5211.286188  25866.735145  -2479.046654    583.049404
PG07  -7369.727583  20541.996523 -14330.198187    143.233707
PG08 -25680.444008  -5602.193969   5010.207261   -129.009214
PG09 -13096.981953  10645.376782 -20590.384575   -127.855268
PG10   4460.827678 -19013.935208  18028.418102    -42.543010
PG11  12651.788820  17215.553613 -15801.862864   -249.042734
PG12  23338.341349  -8171.011423   9308.301936   -392.746218
PG13  22889.015991  13680.806447   -918.157348    538.521914
PG14  -7893.085405  19872.943711  15670.320211    101.518351
PG15  26025.218540   2459.126182   4958.186350     51.966267
PG16 -15991.475440  -6548.462075 -20592.822922   -487.981637
PG17   3526.399550  17023.480209  20478.702838    719.368626
PG18   5701.488700 -22609.838820 -12566.691753   -320.749509
PG19  11749.366563  18077.995241  15497.078881    335.113105
PG20  11893.599816   9873.153542 -21559.599817    426.183569
PG21 -16298.178495  -4726.262080  21162.797943    152.809875
PG22 -14392.113012 -17921.141062  13897.231140    503.060387
PG23  15217.957557 -20061.107692   8198.069925     36.479007
PG24  15778.355576   -911.241653  21013.113360   -236.301294
PG25  19715.038404 -17530.888981  -1628.289444    451.995205
PG26  -6406.729492 -15123.082713 -20939.289114    238.244583
PG27 -22515.027096 -13283.983696  -6056.260724      9.814971
PG28  -5143.950551 -26055.176763   -514.578411     83.620929
PG29  15459.016505  -7712.241076 -20256.660169   -603.808169
PG30   -801.318316  25713.798187  -5893.193463   -508.813866
PG31 -11064.229785 -20895.029467 -11832.778522   -218.832186
PG32  -7210.593953 -17176.880712  19188.495830   -507.551454
PJ02 -30274.817982  29242.942816   7222.338096     -0.794145
PJ03 -24520.279439  25373.417526  28142.390150      7.422067
PJ04 -32929.700325  22217.284788  -8859.229645     95.818778
PR01 -18230.153348   8549.067212 -15647.520102     60.095353
PR02     67.943678  10794.956019 -23065.542798    -22.662303
PR03  17970.861540   7213.627009 -16524.883172     80.316217
PR04  25480.623567   -149.517802  -1034.656440    192.499383
PR05  19225.420656  -7410.081318  15036.773455    114.724597
PR07 -18651.712845  -6970.004138  16013.376839     58.760222
PR08 -25504.546518    326.403516    977.792271    -71.402218
PR09   5333.351231 -22558.281907 -10717.741002    127.639323
PR11 -13590.073713   4506.182753 -21092.070924    -88.031128
PR12 -14243.045121  20028.766417  -6823.592253     28.451651
PR13  -6844.064934  22855.256468   9014.532292    -36.424149
PR14   5899.784586  11708.945325  21892.573346     24.852941
PR15  14121.440349  -5606.233882  20515.656545     88.333364
PR16  14162.524906 -19979.481757   7216.726752     15.986606
PR17  15070.156476  19897.268296  -5364.467579    642.023239
PR18  14811.375239   7924.119499 -19169.628021     88.301438
PR19   8156.786029  -6599.609708 -23257.209147   -237.486571
PR20  -5451.472669 -21405.643804 -12791.057106    -95.368855
PR21 -15204.455908 -19332.375742   6701.845520    -17.797165
PR22 -14644.694440  -7370.607571  19566.876116     84.623936
PR24   6365.176252  21516.787675  12158.490818    -13.524127
PR25 -14171.002813 -20540.273423   5234.433189     58.266280
EOF
